[
    [
        "GPS BIIR-5  (PRN 22)",
        "1 26407U 00040A   26139.32021810  .00000024  00000+0  00000+0 0  9995",
        "2 26407  54.8559 216.3089 0121377 302.3544  18.5902  2.00557389189369"
    ],
    [
        "GPS BIIR-8  (PRN 16)",
        "1 27663U 03005A   26139.20391022  .00000026  00000+0  00000+0 0  9998",
        "2 27663  54.8869 216.1205 0147979  53.0170 319.5484  2.00562053170731"
    ],
    [
        "GPS BIIR-11 (PRN 19)",
        "1 28190U 04009A   26137.46271089 -.00000030  00000+0  00000+0 0  9991",
        "2 28190  54.8563 276.9279 0114751 171.7221 177.4709  2.00555598162323"
    ],
    [
        "GPS BIIR-13 (PRN 02)",
        "1 28474U 04045A   26139.13074609 -.00000070  00000+0  00000+0 0  9995",
        "2 28474  55.1533 326.0661 0169836 315.6449 222.9389  2.00554454157847"
    ],
    [
        "GPS BIIRM-1 (PRN 17)",
        "1 28874U 05038A   26138.44943186 -.00000027  00000+0  00000+0 0  9992",
        "2 28874  54.9035 274.3770 0127706 295.9684  73.0787  2.00567620151246"
    ],
    [
        "GPS BIIRM-2 (PRN 31)",
        "1 29486U 06042A   26139.12470000  .00000061  00000+0  00000+0 0  9991",
        "2 29486  54.7064 152.4926 0106183  53.8066 340.8374  2.00571442143814"
    ],
    [
        "GPS BIIRM-3 (PRN 12)",
        "1 29601U 06052A   26137.00699953  .00000046  00000+0  00000+0 0  9999",
        "2 29601  54.9391 215.2422 0085868  90.5552 270.4999  2.00556386142787"
    ],
    [
        "GPS BIIRM-4 (PRN 15)",
        "1 32260U 07047A   26138.80755969 -.00000017  00000+0  00000+0 0  9997",
        "2 32260  54.0746  81.2761 0165746  86.8297 275.0323  2.00556604136229"
    ],
    [
        "GPS BIIRM-5 (PRN 29)",
        "1 32384U 07062A   26138.87264733 -.00000027  00000+0  00000+0 0  9993",
        "2 32384  55.0562 275.3305 0035161 163.7098  10.3137  2.00558174134926"
    ],
    [
        "GPS BIIRM-6 (PRN 07)",
        "1 32711U 08012A   26139.21994749  .00000060  00000+0  00000+0 0  9995",
        "2 32711  54.4926 151.0819 0210546 247.4589 110.3264  2.00571592133171"
    ],
    [
        "GPS BIIRM-8 (PRN 05)",
        "1 35752U 09043A   26138.72008562 -.00000076  00000+0  00000+0 0  9990",
        "2 35752  56.1924  28.6092 0053409  82.0347 288.9087  2.00555725122775"
    ],
    [
        "GPS BIIF-1  (PRN 25)",
        "1 36585U 10022A   26137.60907735  .00000049  00000+0  00000+0 0  9999",
        "2 36585  54.2733 209.7940 0126408  66.1106 340.3358  2.00560837116987"
    ],
    [
        "GPS BIIF-3  (PRN 24)",
        "1 38833U 12053A   26137.40512145  .00000074  00000+0  00000+0 0  9996",
        "2 38833  53.5797 144.8603 0178732  65.3642 296.5167  2.00566950 98829"
    ],
    [
        "GPS BIIF-4  (PRN 27)",
        "1 39166U 13023A   26135.27691818 -.00000031  00000+0  00000+0 0  9996",
        "2 39166  54.5310 270.3138 0141799  50.8427 310.3815  2.00563577 95220"
    ],
    [
        "GPS BIIF-5  (PRN 30)",
        "1 39533U 14008A   26139.26680807  .00000058  00000+0  00000+0 0  9995",
        "2 39533  53.6493 150.4992 0084126 230.7390 128.5382  2.00557869 89109"
    ],
    [
        "GPS BIIF-6  (PRN 06)",
        "1 39741U 14026A   26138.54510105 -.00000069  00000+0  00000+0 0  9992",
        "2 39741  56.5121 332.6713 0038530 326.8805  32.8940  2.00563079 87948"
    ],
    [
        "GPS BIIF-7  (PRN 09)",
        "1 40105U 14045A   26138.13773010 -.00000002  00000+0  00000+0 0  9997",
        "2 40105  55.3344  89.6616 0032231 118.6149 241.6724  2.00556317 85472"
    ],
    [
        "GPS BIIF-8  (PRN 03)",
        "1 40294U 14068A   26137.51152079 -.00000070  00000+0  00000+0 0  9993",
        "2 40294  56.9673  32.1368 0066137  69.4915 291.2550  2.00574205 84592"
    ],
    [
        "GPS BIIF-9  (PRN 26)",
        "1 40534U 15013A   26138.64489052  .00000041  00000+0  00000+0 0  9997",
        "2 40534  53.1705 205.3995 0109037  40.0256 320.8571  2.00553076 81237"
    ],
    [
        "GPS BIIF-10 (PRN 08)",
        "1 40730U 15033A   26138.80395372 -.00000023  00000+0  00000+0 0  9997",
        "2 40730  54.0064 268.2976 0115012  30.0973 330.5439  2.00557665 79400"
    ],
    [
        "GPS BIIF-11 (PRN 10)",
        "1 41019U 15062A   26138.86115367 -.00000073  00000+0  00000+0 0  9995",
        "2 41019  56.9406  31.9410 0111391 231.3554 127.6822  2.00566892 77240"
    ],
    [
        "GPS BIIF-12 (PRN 32)",
        "1 41328U 16007A   26138.95018929  .00000001  00000+0  00000+0 0  9994",
        "2 41328  55.5069  90.6182 0096120 247.2933 111.6541  2.00553010 75258"
    ],
    [
        "GPS BIII-1  (PRN 04)",
        "1 43873U 18109A   26139.33769074  .00000007  00000+0  00000+0 0  9999",
        "2 43873  55.6655  93.3242 0037944 198.6532 334.5782  2.00560104 54495"
    ],
    [
        "GPS BIII-2  (PRN 18)",
        "1 44506U 19056A   26135.98166581 -.00000060  00000+0  00000+0 0  9996",
        "2 44506  55.6526 332.4228 0060472 197.4166 335.4017  2.00569160 49428"
    ],
    [
        "GPS BIII-3  (PRN 23)",
        "1 45854U 20041A   26136.13771204 -.00000070  00000+0  00000+0 0  9992",
        "2 45854  56.6497  30.1875 0062714 204.8384  20.3506  2.00559115 43391"
    ],
    [
        "GPS BIII-4  (PRN 14)",
        "1 46826U 20078A   26139.29391200  .00000027  00000+0  00000+0 0  9997",
        "2 46826  53.9835 211.9505 0072253 206.3688 113.0997  2.00564737 40925"
    ],
    [
        "GPS BIII-5  (PRN 11)",
        "1 48859U 21054A   26137.34480045 -.00000068  00000+0  00000+0 0  9996",
        "2 48859  55.1876 333.6992 0024566 229.1389 308.8619  2.00570739 36131"
    ],
    [
        "GPS BIII-6  (PRN 28)",
        "1 55268U 23009A   26138.54209185  .00000067  00000+0  00000+0 0  9995",
        "2 55268  55.1180 149.6840 0006010 315.2078  45.2270  2.00573426 24659"
    ],
    [
        "GPS BIII-7  (PRN 01)",
        "1 62339U 24242A   26138.67616024 -.00000075  00000+0  00000+0 0  9990",
        "2 62339  54.8623 335.3773 0017222   3.5093 176.2743  2.00570743 10669"
    ],
    [
        "GPS BIII-8  (PRN 21)",
        "1 64202U 25116A   26138.42023513 -.00000074  00000+0  00000+0 0  9999",
        "2 64202  55.2158  32.3285 0008479 335.9271 201.3041  2.00577680  7275"
    ],
    [
        "GPS BIII-9  (PRN 20)",
        "1 67588U 26017A   26138.78223144 -.00000001  00000+0  00000+0 0  9991",
        "2 67588  55.0703  89.9349 0022831 255.9550 103.7555  2.00571653431020"
    ]
]